{"type": "FeatureCollection", "features": [ {"type": "Feature", "properties": {"norad_id": 29782, "name": "FENGYUN 1C DEB", "group": "fengyun-1c-debris", "lat": -13.549904525268945, "lon": -147.7558612555532, "alt_km": 822.1787518152596, "timestamp": "2025-12-06T22:38:42.999577+00:00", "meta": {"OBJECT_NAME": "FENGYUN 1C DEB", "OBJECT_ID": "1999-025BY", "EPOCH": "2025-12-06T15:32:53.288736", "MEAN_MOTION": 14.11618872, "ECCENTRICITY": 0.00551806, "INCLINATION": 99.1003, "RA_OF_ASC_NODE": 34.1581, "ARG_OF_PERICENTER": 219.7326, "MEAN_ANOMALY": 272.206, "EPHEMERIS_TYPE": 0, "CLASSIFICATION_TYPE": "U", "NORAD_CAT_ID": 29782, "ELEMENT_SET_NO": 999, "REV_AT_EPOCH": 96585, "BSTAR": 0.0023413703, "MEAN_MOTION_DOT": 4.273e-05, "MEAN_MOTION_DDOT": 0}, "tle": {"line1": "1 29782U 99025BY  25340.64783899  .00004273  00000+0  23414-2 0  9992", "line2": "2 29782  99.1003  34.1581 0055180 219.7326 272.2060 14.11618872965854"}}, "geometry": {"type": "Point", "coordinates": [-147.7558612555532, -13.549904525268945]}}, {"type": "Feature", "properties": {"norad_id": 29784, "name": "FENGYUN 1C DEB", "group": "fengyun-1c-debris", "lat": -47.117811782133955, "lon": -90.66004791789128, "alt_km": 753.8209730045619, "timestamp": "2025-12-06T22:38:42.999588+00:00", "meta": {"OBJECT_NAME": "FENGYUN 1C DEB", "OBJECT_ID": "1999-025CA", "EPOCH": "2025-12-06T13:37:44.241888", "MEAN_MOTION": 14.30555085, "ECCENTRICITY": 0.00597558, "INCLINATION": 98.9449, "RA_OF_ASC_NODE": 259.1894, "ARG_OF_PERICENTER": 315.5916, "MEAN_ANOMALY": 222.9775, "EPHEMERIS_TYPE": 0, "CLASSIFICATION_TYPE": "U", "NORAD_CAT_ID": 29784, "ELEMENT_SET_NO": 999, "REV_AT_EPOCH": 98271, "BSTAR": 0.0011298132, "MEAN_MOTION_DOT": 2.958e-05, "MEAN_MOTION_DDOT": 0}, "tle": {"line1": "1 29784U 99025CA  25340.56787317  .00002958  00000+0  11298-2 0  9999", "line2": "2 29784  98.9449 259.1894 0059755 315.5916 222.9775 14.30555085982711"}}, "geometry": {"type": "Point", "coordinates": [-90.66004791789128, -47.117811782133955]}}, {"type": "Feature", "properties": {"norad_id": 29786, "name": "FENGYUN 1C DEB", "group": "fengyun-1c-debris", "lat": -20.08382289725941, "lon": 1.560196643834958, "alt_km": 815.0971602547816, "timestamp": "2025-12-06T22:38:42.999598+00:00", "meta": {"OBJECT_NAME": "FENGYUN 1C DEB", "OBJECT_ID": "1999-025CC", "EPOCH": "2025-12-06T14:49:25.135392", "MEAN_MOTION": 14.09078679, "ECCENTRICITY": 0.00772067, "INCLINATION": 98.736, "RA_OF_ASC_NODE": 358.0214, "ARG_OF_PERICENTER": 320.5445, "MEAN_ANOMALY": 166.6637, "EPHEMERIS_TYPE": 0, "CLASSIFICATION_TYPE": "U", "NORAD_CAT_ID": 29786, "ELEMENT_SET_NO": 999, "REV_AT_EPOCH": 97074, "BSTAR": 0.00027154798, "MEAN_MOTION_DOT": 4.41e-06, "MEAN_MOTION_DDOT": 0}, "tle": {"line1": "1 29786U 99025CC  25340.61765203  .00000441  00000+0  27155-3 0  9992", "line2": "2 29786  98.7360 358.0214 0077206 320.5445 166.6637 14.09078679970748"}}, "geometry": {"type": "Point", "coordinates": [1.560196643834958, -20.08382289725941]}}, {"type": "Feature", "properties": {"norad_id": 29788, "name": "FENGYUN 1C DEB", "group": "fengyun-1c-debris", "lat": -74.4228720773594, "lon": 86.24361775096892, "alt_km": 806.0153866083065, "timestamp": "2025-12-06T22:38:42.999609+00:00", "meta": {"OBJECT_NAME": "FENGYUN 1C DEB", "OBJECT_ID": "1999-025CE", "EPOCH": "2025-12-06T11:18:14.201280", "MEAN_MOTION": 14.25900165, "ECCENTRICITY": 0.00429317, "INCLINATION": 98.7848, "RA_OF_ASC_NODE": 52.0802, "ARG_OF_PERICENTER": 206.6519, "MEAN_ANOMALY": 171.4321, "EPHEMERIS_TYPE": 0, "CLASSIFICATION_TYPE": "U", "NORAD_CAT_ID": 29788, "ELEMENT_SET_NO": 999, "REV_AT_EPOCH": 97266, "BSTAR": 0.0029859097, "MEAN_MOTION_DOT": 7.142e-05, "MEAN_MOTION_DDOT": 0}, "tle": {"line1": "1 29788U 99025CE  25340.47099770  .00007142  00000+0  29859-2 0  9994", "line2": "2 29788  98.7848  52.0802 0042931 206.6519 171.4321 14.25900165972667"}}, "geometry": {"type": "Point", "coordinates": [86.24361775096892, -74.4228720773594]}}, {"type": "Feature", "properties": {"norad_id": 29789, "name": "FENGYUN 1C DEB", "group": "fengyun-1c-debris", "lat": 56.982092882216186, "lon": -1.1647941664503596, "alt_km": 1270.6218691386202, "timestamp": "2025-12-06T22:38:42.999619+00:00", "meta": {"OBJECT_NAME": "FENGYUN 1C DEB", "OBJECT_ID": "1999-025CF", "EPOCH": "2025-12-05T10:52:30.940032", "MEAN_MOTION": 13.54214224, "ECCENTRICITY": 0.02983807, "INCLINATION": 99.452, "RA_OF_ASC_NODE": 162.5558, "ARG_OF_PERICENTER": 297.1839, "MEAN_ANOMALY": 122.7571, "EPHEMERIS_TYPE": 0, "CLASSIFICATION_TYPE": "U", "NORAD_CAT_ID": 29789, "ELEMENT_SET_NO": 999, "REV_AT_EPOCH": 92889, "BSTAR": 0.0021158118, "MEAN_MOTION_DOT": 1.866e-05, "MEAN_MOTION_DDOT": 0}, "tle": {"line1": "1 29789U 99025CF  25339.45313588  .00001866  00000+0  21158-2 0  9998", "line2": "2 29789  99.4520 162.5558 0298380 297.1839 122.7571 13.54214224928896"}}, "geometry": {"type": "Point", "coordinates": [-1.1647941664503596, 56.982092882216186]}}, {"type": "Feature", "properties": {"norad_id": 29790, "name": "FENGYUN 1C DEB", "group": "fengyun-1c-debris", "lat": 63.021130786669296, "lon": -43.79744506992717, "alt_km": 811.9833861568877, "timestamp": "2025-12-06T22:38:42.999629+00:00", "meta": {"OBJECT_NAME": "FENGYUN 1C DEB", "OBJECT_ID": "1999-025CG", "EPOCH": "2025-12-06T10:36:16.524288", "MEAN_MOTION": 14.32254211, "ECCENTRICITY": 0.00762173, "INCLINATION": 99.147, "RA_OF_ASC_NODE": 334.1253, "ARG_OF_PERICENTER": 194.8277, "MEAN_ANOMALY": 165.067, "EPHEMERIS_TYPE": 0, "CLASSIFICATION_TYPE": "U", "NORAD_CAT_ID": 29790, "ELEMENT_SET_NO": 999, "REV_AT_EPOCH": 98435, "BSTAR": 0.00053881385, "MEAN_MOTION_DOT": 1.452e-05, "MEAN_MOTION_DDOT": 0}, "tle": {"line1": "1 29790U 99025CG  25340.44185792  .00001452  00000+0  53881-3 0  9995", "line2": "2 29790  99.1470 334.1253 0076217 194.8277 165.0670 14.32254211984350"}}, "geometry": {"type": "Point", "coordinates": [-43.79744506992717, 63.021130786669296]}}, {"type": "Feature", "properties": {"norad_id": 29791, "name": "FENGYUN 1C DEB", "group": "fengyun-1c-debris", "lat": 4.362920921114762, "lon": 161.68551411836384, "alt_km": 704.7573735881515, "timestamp": "2025-12-06T22:38:42.999639+00:00", "meta": {"OBJECT_NAME": "FENGYUN 1C DEB", "OBJECT_ID": "1999-025CH", "EPOCH": "2025-12-06T14:11:28.626720", "MEAN_MOTION": 14.58117125, "ECCENTRICITY": 0.0041648, "INCLINATION": 99.0355, "RA_OF_ASC_NODE": 340.6075, "ARG_OF_PERICENTER": 80.1473, "MEAN_ANOMALY": 46.8685, "EPHEMERIS_TYPE": 0, "CLASSIFICATION_TYPE": "U", "NORAD_CAT_ID": 29791, "ELEMENT_SET_NO": 999, "REV_AT_EPOCH": 98756, "BSTAR": 0.0027457841, "MEAN_MOTION_DOT": 0.00012766, "MEAN_MOTION_DDOT": 0}, "tle": {"line1": "1 29791U 99025CH  25340.59130355  .00012766  00000+0  27458-2 0  9997", "line2": "2 29791  99.0355 340.6075 0041648  80.1473  46.8685 14.58117125987569"}}, "geometry": {"type": "Point", "coordinates": [161.68551411836384, 4.362920921114762]}}, {"type": "Feature", "properties": {"norad_id": 29792, "name": "FENGYUN 1C DEB", "group": "fengyun-1c-debris", "lat": 11.875705357065803, "lon": 29.756458445713825, "alt_km": 816.7702763766993, "timestamp": "2025-12-06T22:38:42.999649+00:00", "meta": {"OBJECT_NAME": "FENGYUN 1C DEB", "OBJECT_ID": "1999-025CJ", "EPOCH": "2025-12-06T02:13:33.245760", "MEAN_MOTION": 14.15105957, "ECCENTRICITY": 0.00483672, "INCLINATION": 98.7577, "RA_OF_ASC_NODE": 30.779, "ARG_OF_PERICENTER": 55.6497, "MEAN_ANOMALY": 304.9239, "EPHEMERIS_TYPE": 0, "CLASSIFICATION_TYPE": "U", "NORAD_CAT_ID": 29792, "ELEMENT_SET_NO": 999, "REV_AT_EPOCH": 96845, "BSTAR": 0.0021415814, "MEAN_MOTION_DOT": 4.159e-05, "MEAN_MOTION_DDOT": 0}, "tle": {"line1": "1 29792U 99025CJ  25340.09274590  .00004159  00000+0  21416-2 0  9998", "line2": "2 29792  98.7577  30.7790 0048367  55.6497 304.9239 14.15105957968454"}}, "geometry": {"type": "Point", "coordinates": [29.756458445713825, 11.875705357065803]}}, {"type": "Feature", "properties": {"norad_id": 29793, "name": "FENGYUN 1C DEB", "group": "fengyun-1c-debris", "lat": -74.04959982114003, "lon": -168.85398009827705, "alt_km": 862.077869150452, "timestamp": "2025-12-06T22:38:42.999659+00:00", "meta": {"OBJECT_NAME": "FENGYUN 1C DEB", "OBJECT_ID": "1999-025CK", "EPOCH": "2025-12-06T11:08:21.533568", "MEAN_MOTION": 14.01049723, "ECCENTRICITY": 0.01439912, "INCLINATION": 98.3544, "RA_OF_ASC_NODE": 159.7671, "ARG_OF_PERICENTER": 356.0415, "MEAN_ANOMALY": 32.4632, "EPHEMERIS_TYPE": 0, "CLASSIFICATION_TYPE": "U", "NORAD_CAT_ID": 29793, "ELEMENT_SET_NO": 999, "REV_AT_EPOCH": 96061, "BSTAR": 0.0016536555, "MEAN_MOTION_DOT": 2.674e-05, "MEAN_MOTION_DDOT": 0}, "tle": {"line1": "1 29793U 99025CK  25340.46413812  .00002674  00000+0  16537-2 0  9990", "line2": "2 29793  98.3544 159.7671 0143991 356.0415  32.4632 14.01049723960615"}}, "geometry": {"type": "Point", "coordinates": [-168.85398009827705, -74.04959982114003]}}, {"type": "Feature", "properties": {"norad_id": 29794, "name": "FENGYUN 1C DEB", "group": "fengyun-1c-debris", "lat": 68.17182079567237, "lon": 118.99690593065525, "alt_km": 744.9224978409229, "timestamp": "2025-12-06T22:38:42.999669+00:00", "meta": {"OBJECT_NAME": "FENGYUN 1C DEB", "OBJECT_ID": "1999-025CL", "EPOCH": "2025-12-06T03:49:56.353728", "MEAN_MOTION": 14.08977139, "ECCENTRICITY": 0.01573734, "INCLINATION": 98.1994, "RA_OF_ASC_NODE": 139.3814, "ARG_OF_PERICENTER": 59.3455, "MEAN_ANOMALY": 356.1965, "EPHEMERIS_TYPE": 0, "CLASSIFICATION_TYPE": "U", "NORAD_CAT_ID": 29794, "ELEMENT_SET_NO": 999, "REV_AT_EPOCH": 96755, "BSTAR": 0.00090820013, "MEAN_MOTION_DOT": 1.725e-05, "MEAN_MOTION_DDOT": 0}, "tle": {"line1": "1 29794U 99025CL  25340.15968002  .00001725  00000+0  90820-3 0  9997", "line2": "2 29794  98.1994 139.3814 0157373  59.3455 356.1965 14.08977139967555"}}, "geometry": {"type": "Point", "coordinates": [118.99690593065525, 68.17182079567237]}}]}